43072,IRIDIUM 116,2017,100.4,860.0,+,86.4,Active,1,LEO,USA,USA,Commercial/Government,Communications,Falcon,1 43072U 17083C   24071.62082356  .00000015  00000+0 -17253-5 0  9990,2 43072  86.3955 307.8870 0002111  82.6649 277.4787 14.34216832325553,14.34216832,0.0002111,LEO
43073,IRIDIUM 130,2017,100.4,860.0,+,86.4,Active,1,LEO,USA,USA,Commercial/Government,Communications,Falcon,1 43073U 17083D   24071.37979485  .00000319  00000+0  10670-3 0  9991,2 43073  86.3965 308.1831 0002135  92.3921 267.7520 14.34221343325463,14.34221343,0.0002135,LEO
43074,IRIDIUM 151,2017,100.4,860.0,+,86.4,Active,1,LEO,USA,USA,Commercial/Government,Communications,Falcon,1 43074U 17083E   24071.35443395  .00000298  00000+0  99331-4 0  9994,2 43074  86.3957 308.0378 0001892  78.8600 281.2808 14.34217090325488,14.3421709,0.0001892,LEO
43075,IRIDIUM 134,2017,100.4,860.0,+,86.4,Active,1,LEO,USA,USA,Commercial/Government,Communications,Falcon,1 43075U 17083F   24071.39249043  .00000026  00000+0  20669-5 0  9991,2 43075  86.3961 308.0188 0002284  90.4082 269.7376 14.34216797325454,14.34216797,0.0002284,LEO
43076,IRIDIUM 137,2017,100.4,860.0,+,86.4,Active,1,LEO,USA,USA,Commercial/Government,Communications,Falcon,1 43076U 17083G   24071.40517103  .00000312  00000+0  10451-3 0  9993,2 43076  86.3958 308.0899 0002245  75.5065 284.6380 14.34216612325527,14.34216612,0.0002245,LEO
43077,IRIDIUM 141,2017,100.4,860.0,+,86.4,Active,1,LEO,USA,USA,Commercial/Government,Communications,Falcon,1 43077U 17083H   24071.60813462 -.00000007  00000+0 -95222-5 0  9997,2 43077  86.3955 307.8821 0001915  86.8064 273.3351 14.34215585325558,14.34215585,0.0001915,LEO
43078,IRIDIUM 153,2017,100.4,860.0,+,86.39,Active,1,LEO,USA,USA,Commercial/Government,Communications,Falcon,1 43078U 17083J   24071.49054604 -.00000049  00000+0 -24731-4 0  9992,2 43078  86.3918 276.3645 0001515  95.4240 264.7129 14.34216442326641,14.34216442,0.0001515,LEO
43079,IRIDIUM 131,2017,100.4,860.0,+,86.4,Active,1,LEO,USA,USA,Commercial/Government,Communications,Falcon,1 43079U 17083K   24071.38614790  .00000238  00000+0  77960-4 0  9999,2 43079  86.3962 308.1060 0002176  82.7328 277.4115 14.34217470325452,14.3421747,0.0002176,LEO
